OBJECT_NAME,OBJECT_ID,EPOCH,MEAN_MOTION,ECCENTRICITY,INCLINATION,RA_OF_ASC_NODE,ARG_OF_PERICENTER,MEAN_ANOMALY,EPHEMERIS_TYPE,CLASSIFICATION_TYPE,NORAD_CAT_ID,ELEMENT_SET_NO,REV_AT_EPOCH,BSTAR,MEAN_MOTION_DOT,MEAN_MOTION_DDOT
FLOCK 4BE-9,2024-149AY,2026-06-26T16:49:29.220096,15.41063949,.0001911,97.3797,262.0658,233.5802,126.5269,0,U,60514,999,10378,.37473E-3,.15411E-3,0
FLOCK 4BE-6,2024-149BA,2026-06-26T11:27:31.546080,15.39817835,.0002481,97.3794,261.1807,240.2295,119.8704,0,U,60516,999,10370,.38789E-3,.15313E-3,0
FLOCK 4BE-14,2024-149BB,2026-06-26T17:05:38.522688,15.41282998,.000353,97.3702,261.5623,243.0507,117.0379,0,U,60517,999,10379,.41827E-3,.17344E-3,0
FLOCK 4BE-1,2024-149BC,2026-06-26T17:14:14.010144,15.42899582,.0003363,97.3785,262.8800,241.4234,118.6675,0,U,60518,999,10384,.40057E-3,.17527E-3,0
FLOCK 4BE-28,2024-149BD,2026-06-26T17:14:07.513728,15.45226458,.0003388,97.3753,263.6337,235.3693,124.7237,0,U,60519,999,10391,.40173E-3,.19021E-3,0
IPERDRONE.0,2024-149BE,2026-06-26T18:08:13.877952,15.68054185,.0004096,97.3776,271.4480,204.1869,155.9200,0,U,60520,999,10441,.69494E-3,.77491E-3,0
TRANSPORTER-11 OBJECT BF,2024-149BF,2026-06-26T17:07:17.189760,15.89840523,.000705,97.3748,274.4227,227.6979,132.3697,0,U,60521,999,10459,.10876E-2,.320745E-2,.39817E-4
CONNECTA IOT-2,2024-149BG,2026-06-26T16:48:48.135168,15.24049365,.0004858,97.3843,255.7020,296.3998,63.6740,0,U,60522,999,10334,.19558E-3,.4674E-4,0
CONNECTA IOT-4,2024-149BJ,2026-06-26T11:38:46.699008,15.42475595,.0004487,97.3802,261.9663,242.2329,117.8463,0,U,60524,999,10376,.45154E-3,.19497E-3,0
ORESAT0.5,2024-149BK,2026-06-26T16:51:18.040032,15.45424417,.0004663,97.3725,263.8492,229.1827,130.9018,0,U,60525,999,10394,.40081E-3,.19109E-3,0
DEIMOS,2024-149BL,2026-06-26T17:45:21.183264,15.44548077,.0004486,97.3789,264.0232,237.4096,122.6720,0,U,60526,999,10392,.40645E-3,.18809E-3,0
CUAVA-2,2024-149BM,2026-06-26T17:21:49.980096,15.36324305,.0005394,97.3733,259.2594,251.4087,108.6571,0,U,60527,999,10363,.33759E-3,.11885E-3,0
ERNST,2024-149BN,2026-06-26T17:24:59.744736,15.39445449,.0004578,97.3814,261.5175,251.8955,108.1792,0,U,60528,999,10374,.35206E-3,.13722E-3,0
TORO,2024-149BQ,2026-06-26T17:38:12.705792,14.96451792,.0001115,97.6781,252.2246,92.2808,267.8542,0,U,60530,999,10138,.1524E-3,.1672E-4,0
HYPSO-2,2024-149BR,2026-06-26T03:31:17.961024,14.98827200,.00008797,97.6812,253.2759,126.8038,233.3266,0,U,60531,999,10139,.24928096E-3,.2948E-4,0
LEMU NGE,2024-149BS,2026-06-26T16:33:00.595008,14.94989758,.0001592,97.6842,252.4571,58.5304,301.6072,0,U,60532,999,10137,.2274E-3,.2429E-4,0
LEMUR-2-STELLA,2024-149BT,2026-06-26T16:16:56.460864,15.11999626,.0001451,97.6742,260.1754,97.9176,262.2219,0,U,60533,999,10193,.62136E-3,.1061E-3,0
SATELIOT_2,2024-149BU,2026-06-26T17:20:15.709920,14.96392763,.0001753,97.6829,252.5048,84.4222,275.7199,0,U,60534,999,10139,.12113E-3,.1315E-4,0
NIGHTJAR,2024-149BV,2026-06-26T17:42:06.367680,14.99061425,.0000899,97.6832,254.3105,112.7527,247.3791,0,U,60535,999,14430,.25202E-3,.3E-4,0
LEMUR-2-MARHISYAM,2024-149BW,2026-06-26T17:28:56.508384,15.11435662,.0003239,97.6882,260.6844,100.7882,259.3713,0,U,60536,999,10192,.60353E-3,.10143E-3,0
SATELIOT_4,2024-149BX,2026-06-26T17:33:04.184352,14.96694908,.0002303,97.6732,252.0344,37.4357,322.7025,0,U,60537,999,10140,.13757E-3,.1513E-4,0
PICO-02A021,2024-149BY,2026-06-26T11:38:36.344832,15.03339258,.0004295,97.6768,256.2369,6.7787,353.3496,0,U,60538,999,10113,.39451E-3,.5297E-4,0
ICEYE-X43,2024-149BZ,2026-06-26T16:53:14.350848,14.99683985,.0008105,97.6817,254.5388,57.1166,303.0836,0,U,60539,999,10154,.33001E-3,.4014E-4,0
HAWK-10A,2024-149CA,2026-06-26T17:32:39.103296,14.96538618,.0004308,97.6891,253.4786,54.3355,305.8268,0,U,60540,999,10141,.10629E-3,.1151E-4,0
UMBRA-09,2024-149CB,2026-06-26T16:34:11.828352,15.18322401,.0001075,97.6976,265.0593,238.2765,121.8364,0,U,60541,999,10216,.79205E-3,.16207E-3,0
QPS-SAR-8 (AMATERU-IV),2024-149CC,2026-06-26T16:57:24.208416,15.04219483,.0004206,97.6662,256.7759,86.8935,273.2772,0,U,60542,999,10170,.45557E-3,.6273E-4,0
ARCTIC WEATHER SATELLITE,2024-149CD,2026-06-26T03:41:27.665952,14.89795586,.00036629,97.6799,247.3632,87.1439,273.0198,0,U,60543,999,10063,.95019281E-4,.858E-5,0
CAPELLA-15 (ACADIA-5),2024-149CE,2026-06-26T17:01:14.683008,14.92406617,.0004285,97.6777,250.3746,50.7697,309.3902,0,U,60544,999,10127,.34633E-3,.3492E-4,0
HAWK-10B,2024-149CF,2026-06-26T17:32:26.780064,14.96537647,.0006437,97.6809,252.8239,67.4645,292.7257,0,U,60545,999,10141,.11119E-3,.1207E-4,0
ICEYE-X39,2024-149CG,2026-06-26T16:24:12.143232,14.99949437,.0006308,97.6763,254.5774,94.3896,265.8048,0,U,60546,999,10154,.28881E-3,.3529E-4,0
