FLOCK 4BE-9             
1 60514U 24149AY  26177.70103264  .00015411  00000+0  37473-3 0  9990
2 60514  97.3797 262.0658 0001911 233.5802 126.5269 15.41063949103786
FLOCK 4BE-6             
1 60516U 24149BA  26177.47744845  .00015313  00000+0  38789-3 0  9994
2 60516  97.3794 261.1807 0002481 240.2295 119.8704 15.39817835103704
FLOCK 4BE-14            
1 60517U 24149BB  26177.71225142  .00017344  00000+0  41827-3 0  9999
2 60517  97.3702 261.5623 0003530 243.0507 117.0379 15.41282998103793
FLOCK 4BE-1             
1 60518U 24149BC  26177.71821771  .00017527  00000+0  40057-3 0  9997
2 60518  97.3785 262.8800 0003363 241.4234 118.6675 15.42899582103845
FLOCK 4BE-28            
1 60519U 24149BD  26177.71814252  .00019021  00000+0  40173-3 0  9994
2 60519  97.3753 263.6337 0003388 235.3693 124.7237 15.45226458103912
IPERDRONE.0             
1 60520U 24149BE  26177.75571618  .00077491  00000+0  69494-3 0  9998
2 60520  97.3776 271.4480 0004096 204.1869 155.9200 15.68054185104414
TRANSPORTER-11 OBJECT BF
1 60521U 24149BF  26177.71339340  .00320745  39817-4  10876-2 0  9994
2 60521  97.3748 274.4227 0007050 227.6979 132.3697 15.89840523104591
CONNECTA IOT-2          
1 60522U 24149BG  26177.70055712  .00004674  00000+0  19558-3 0  9996
2 60522  97.3843 255.7020 0004858 296.3998  63.6740 15.24049365103349
CONNECTA IOT-4          
1 60524U 24149BJ  26177.48526272  .00019497  00000+0  45154-3 0  9997
2 60524  97.3802 261.9663 0004487 242.2329 117.8463 15.42475595103762
ORESAT0.5               
1 60525U 24149BK  26177.70229213  .00019109  00000+0  40081-3 0  9992
2 60525  97.3725 263.8492 0004663 229.1827 130.9018 15.45424417103943
DEIMOS                  
1 60526U 24149BL  26177.73982851  .00018809  00000+0  40645-3 0  9992
2 60526  97.3789 264.0232 0004486 237.4096 122.6720 15.44548077103926
CUAVA-2                 
1 60527U 24149BM  26177.72349514  .00011885  00000+0  33759-3 0  9990
2 60527  97.3733 259.2594 0005394 251.4087 108.6571 15.36324305103631
ERNST                   
1 60528U 24149BN  26177.72569149  .00013722  00000+0  35206-3 0  9990
2 60528  97.3814 261.5175 0004578 251.8955 108.1792 15.39445449103742
TORO                    
1 60530U 24149BQ  26177.73486928  .00001672  00000+0  15240-3 0  9994
2 60530  97.6781 252.2246 0001115  92.2808 267.8542 14.96451792101389
HYPSO-2                 
1 60531U 24149BR  26177.14673566  .00002948  00000+0  24928-3 0  9996
2 60531  97.6812 253.2759 0000879 126.8038 233.3266 14.98827200101395
LEMU NGE                
1 60532U 24149BS  26177.68959022  .00002429  00000+0  22740-3 0  9994
2 60532  97.6842 252.4571 0001592  58.5304 301.6072 14.94989758101377
LEMUR-2-STELLA          
1 60533U 24149BT  26177.67843126  .00010610  00000+0  62136-3 0  9995
2 60533  97.6742 260.1754 0001451  97.9176 262.2219 15.11999626101936
SATELIOT_2              
1 60534U 24149BU  26177.72240405  .00001315  00000+0  12113-3 0  9995
2 60534  97.6829 252.5048 0001753  84.4222 275.7199 14.96392763101399
NIGHTJAR                
1 60535U 24149BV  26177.73757370  .00003000  00000+0  25202-3 0  9997
2 60535  97.6832 254.3105 0000899 112.7527 247.3791 14.99061425144303
LEMUR-2-MARHISYAM       
1 60536U 24149BW  26177.72843181  .00010143  00000+0  60353-3 0  9995
2 60536  97.6882 260.6844 0003239 100.7882 259.3713 15.11435662101922
SATELIOT_4              
1 60537U 24149BX  26177.73129843  .00001513  00000+0  13757-3 0  9996
2 60537  97.6732 252.0344 0002303  37.4357 322.7025 14.96694908101407
PICO-02A021             
1 60538U 24149BY  26177.48514288  .00005297  00000+0  39451-3 0  9992
2 60538  97.6768 256.2369 0004295   6.7787 353.3496 15.03339258101133
ICEYE-X43               
1 60539U 24149BZ  26177.70363832  .00004014  00000+0  33001-3 0  9996
2 60539  97.6817 254.5388 0008105  57.1166 303.0836 14.99683985101544
HAWK-10A                
1 60540U 24149CA  26177.73100814  .00001151  00000+0  10629-3 0  9990
2 60540  97.6891 253.4786 0004308  54.3355 305.8268 14.96538618101412
UMBRA-09                
1 60541U 24149CB  26177.69041468  .00016207  00000+0  79205-3 0  9998
2 60541  97.6976 265.0593 0001075 238.2765 121.8364 15.18322401102160
QPS-SAR-8 (AMATERU-IV)  
1 60542U 24149CC  26177.70653019  .00006273  00000+0  45557-3 0  9997
2 60542  97.6662 256.7759 0004206  86.8935 273.2772 15.04219483101703
ARCTIC WEATHER SATELLITE
1 60543U 24149CD  26177.15379243  .00000858  00000+0  95019-4 0  9993
2 60543  97.6799 247.3632 0003662  87.1439 273.0198 14.89795586100635
CAPELLA-15 (ACADIA-5)   
1 60544U 24149CE  26177.70919772  .00003492  00000+0  34633-3 0  9993
2 60544  97.6777 250.3746 0004285  50.7697 309.3902 14.92406617101271
HAWK-10B                
1 60545U 24149CF  26177.73086551  .00001207  00000+0  11119-3 0  9993
2 60545  97.6809 252.8239 0006437  67.4645 292.7257 14.96537647101417
ICEYE-X39               
1 60546U 24149CG  26177.68347388  .00003529  00000+0  28881-3 0  9999
2 60546  97.6763 254.5774 0006308  94.3896 265.8048 14.99949437101544
